{"fetched_at":"2026-07-08T17:59:38.912Z","source":"https://celestrak.org/NORAD/elements/gp.php?NAME=CAPELLA&FORMAT=JSON","constellation":"capella","records":[{"OBJECT_NAME":"CAPELLA-11 (ACADIA-1)","OBJECT_ID":"2023-126A","EPOCH":"2026-07-07T22:02:05.860032","CLASSIFICATION_TYPE":"U","MEAN_MOTION":14.84630509,"ECCENTRICITY":0.0001407,"INCLINATION":53.0067,"RA_OF_ASC_NODE":94.9215,"ARG_OF_PERICENTER":76.8202,"MEAN_ANOMALY":283.2934,"EPHEMERIS_TYPE":0,"NORAD_CAT_ID":57693,"ELEMENT_SET_NO":999,"REV_AT_EPOCH":15520,"BSTAR":0.00030855,"MEAN_MOTION_DOT":0.00002403,"MEAN_MOTION_DDOT":0},{"OBJECT_NAME":"CAPELLA-14 (ACADIA-4)","OBJECT_ID":"2024-066C","EPOCH":"2026-07-08T06:47:45.120768","CLASSIFICATION_TYPE":"U","MEAN_MOTION":15.09670244,"ECCENTRICITY":0.0001794,"INCLINATION":45.6018,"RA_OF_ASC_NODE":144.1293,"ARG_OF_PERICENTER":172.831,"MEAN_ANOMALY":187.2601,"EPHEMERIS_TYPE":0,"NORAD_CAT_ID":59444,"ELEMENT_SET_NO":999,"REV_AT_EPOCH":11567,"BSTAR":0.00047361,"MEAN_MOTION_DOT":0.000075,"MEAN_MOTION_DDOT":0},{"OBJECT_NAME":"CAPELLA-13 (ACADIA-3)","OBJECT_ID":"2024-142A","EPOCH":"2026-07-07T20:36:11.210976","CLASSIFICATION_TYPE":"U","MEAN_MOTION":14.87659426,"ECCENTRICITY":0.0001272,"INCLINATION":53.0056,"RA_OF_ASC_NODE":327.3373,"ARG_OF_PERICENTER":92.5535,"MEAN_ANOMALY":267.5591,"EPHEMERIS_TYPE":0,"NORAD_CAT_ID":60419,"ELEMENT_SET_NO":999,"REV_AT_EPOCH":10348,"BSTAR":0.00034357,"MEAN_MOTION_DOT":0.00002921,"MEAN_MOTION_DDOT":0},{"OBJECT_NAME":"CAPELLA-15 (ACADIA-5)","OBJECT_ID":"2024-149CE","EPOCH":"2026-07-07T18:31:46.421184","CLASSIFICATION_TYPE":"U","MEAN_MOTION":14.92384542,"ECCENTRICITY":0.0003729,"INCLINATION":97.6767,"RA_OF_ASC_NODE":261.1588,"ARG_OF_PERICENTER":10.0044,"MEAN_ANOMALY":350.1248,"EPHEMERIS_TYPE":0,"NORAD_CAT_ID":60544,"ELEMENT_SET_NO":999,"REV_AT_EPOCH":10292,"BSTAR":0.00020241,"MEAN_MOTION_DOT":0.00002017,"MEAN_MOTION_DDOT":0},{"OBJECT_NAME":"CAPELLA-17 (ACADIA-7)","OBJECT_ID":"2025-135BH","EPOCH":"2026-07-08T06:28:44.079168","CLASSIFICATION_TYPE":"U","MEAN_MOTION":14.91571526,"ECCENTRICITY":0.0003736,"INCLINATION":97.77,"RA_OF_ASC_NODE":302.5804,"ARG_OF_PERICENTER":280.9976,"MEAN_ANOMALY":79.0822,"EPHEMERIS_TYPE":0,"NORAD_CAT_ID":64583,"ELEMENT_SET_NO":999,"REV_AT_EPOCH":5699,"BSTAR":0.0004243,"MEAN_MOTION_DOT":0.000042,"MEAN_MOTION_DDOT":0},{"OBJECT_NAME":"CAPELLA-16 (ACADIA-6)","OBJECT_ID":"2025-188D","EPOCH":"2026-07-08T10:57:39.684384","CLASSIFICATION_TYPE":"U","MEAN_MOTION":14.94000157,"ECCENTRICITY":0.0005142,"INCLINATION":97.7375,"RA_OF_ASC_NODE":264.2897,"ARG_OF_PERICENTER":154.0329,"MEAN_ANOMALY":206.115,"EPHEMERIS_TYPE":0,"NORAD_CAT_ID":65318,"ELEMENT_SET_NO":999,"REV_AT_EPOCH":4709,"BSTAR":0.00029602,"MEAN_MOTION_DOT":0.000031,"MEAN_MOTION_DDOT":0},{"OBJECT_NAME":"CAPELLA-19 (ACADIA-9)","OBJECT_ID":"2026-004X","EPOCH":"2026-07-06T23:41:29.575968","CLASSIFICATION_TYPE":"U","MEAN_MOTION":14.86641894,"ECCENTRICITY":0.00018971,"INCLINATION":97.7975,"RA_OF_ASC_NODE":186.0054,"ARG_OF_PERICENTER":95.2342,"MEAN_ANOMALY":264.9091,"EPHEMERIS_TYPE":0,"NORAD_CAT_ID":67384,"ELEMENT_SET_NO":999,"REV_AT_EPOCH":2621,"BSTAR":0.00042121926,"MEAN_MOTION_DOT":0.00003686,"MEAN_MOTION_DDOT":0},{"OBJECT_NAME":"CAPELLA-18 (ACADIA-8)","OBJECT_ID":"2026-004Y","EPOCH":"2026-07-08T06:37:28.047648","CLASSIFICATION_TYPE":"U","MEAN_MOTION":14.86637885,"ECCENTRICITY":0.0001248,"INCLINATION":97.8022,"RA_OF_ASC_NODE":187.4211,"ARG_OF_PERICENTER":88.0461,"MEAN_ANOMALY":272.0898,"EPHEMERIS_TYPE":0,"NORAD_CAT_ID":67385,"ELEMENT_SET_NO":999,"REV_AT_EPOCH":2641,"BSTAR":0.00011015,"MEAN_MOTION_DOT":0.00000924,"MEAN_MOTION_DDOT":0},{"OBJECT_NAME":"CAPELLA-20 (ACADIA-10)","OBJECT_ID":"2026-067BX","EPOCH":"2026-07-07T21:17:04.596864","CLASSIFICATION_TYPE":"U","MEAN_MOTION":14.91789194,"ECCENTRICITY":0.0001041,"INCLINATION":97.7577,"RA_OF_ASC_NODE":146.8509,"ARG_OF_PERICENTER":156.325,"MEAN_ANOMALY":203.8017,"EPHEMERIS_TYPE":0,"NORAD_CAT_ID":68485,"ELEMENT_SET_NO":999,"REV_AT_EPOCH":1481,"BSTAR":0.00037354,"MEAN_MOTION_DOT":0.00003711,"MEAN_MOTION_DDOT":0}]}
