CAPELLA-11 (ACADIA-1)   
1 57693U 23126A   26188.91812338  .00002403  00000+0  30855-3 0  9996
2 57693  53.0067  94.9215 0001407  76.8202 283.2934 14.84630509155204
CAPELLA-14 (ACADIA-4)   
1 59444U 24066C   26189.28316112  .00007500  00000+0  47361-3 0  9999
2 59444  45.6018 144.1293 0001794 172.8310 187.2601 15.09670244115672
CAPELLA-13 (ACADIA-3)   
1 60419U 24142A   26188.85846309  .00002921  00000+0  34357-3 0  9999
2 60419  53.0056 327.3373 0001272  92.5535 267.5591 14.87659426103483
CAPELLA-15 (ACADIA-5)   
1 60544U 24149CE  26188.77206506  .00002017  00000+0  20241-3 0  9998
2 60544  97.6767 261.1588 0003729  10.0044 350.1248 14.92384542102923
CAPELLA-17 (ACADIA-7)   
1 64583U 25135BH  26189.26995462  .00004200  00000+0  42430-3 0  9992
2 64583  97.7700 302.5804 0003736 280.9976  79.0822 14.91571526 56998
CAPELLA-16 (ACADIA-6)   
1 65318U 25188D   26189.45670931  .00003100  00000+0  29602-3 0  9993
2 65318  97.7375 264.2897 0005142 154.0329 206.1150 14.94000157 47093
CAPELLA-19 (ACADIA-9)   
1 67384U 26004X   26187.98714787  .00003686  00000+0  42122-3 0  9991
2 67384  97.7975 186.0054 0001897  95.2342 264.9091 14.86641894 26211
CAPELLA-18 (ACADIA-8)   
1 67385U 26004Y   26189.27601907  .00000924  00000+0  11015-3 0  9994
2 67385  97.8022 187.4211 0001248  88.0461 272.0898 14.86637885 26410
CAPELLA-20 (ACADIA-10)  
1 68485U 26067BX  26188.88685876  .00003711  00000+0  37354-3 0  9999
2 68485  97.7577 146.8509 0001041 156.3250 203.8017 14.91789194 14814
